[{"OBJECT_NAME":"ONEWEB-0712","OBJECT_ID":"2022-166AQ","EPOCH":"2025-12-27T05:32:28.386240","MEAN_MOTION":13.16592768,"ECCENTRICITY":0.00019245,"INCLINATION":87.9051,"RA_OF_ASC_NODE":263.0104,"ARG_OF_PERICENTER":62.5701,"MEAN_ANOMALY":297.5626,"EPHEMERIS_TYPE":0,"CLASSIFICATION_TYPE":"U","NORAD_CAT_ID":54680,"ELEMENT_SET_NO":999,"REV_AT_EPOCH":14943,"BSTAR":-0.00019558967,"MEAN_MOTION_DOT":-6.2e-7,"MEAN_MOTION_DDOT":0},{"OBJECT_NAME":"ONEWEB-0714","OBJECT_ID":"2022-166AR","EPOCH":"2025-12-27T06:25:11.259552","MEAN_MOTION":13.21825995,"ECCENTRICITY":0.00019532,"INCLINATION":87.9228,"RA_OF_ASC_NODE":278.2751,"ARG_OF_PERICENTER":75.3126,"MEAN_ANOMALY":284.8225,"EPHEMERIS_TYPE":0,"CLASSIFICATION_TYPE":"U","NORAD_CAT_ID":54681,"ELEMENT_SET_NO":999,"REV_AT_EPOCH":14882,"BSTAR":5.7271644e-5,"MEAN_MOTION_DOT":3.7e-7,"MEAN_MOTION_DDOT":0},{"OBJECT_NAME":"ONEWEB-0532","OBJECT_ID":"2023-004A","EPOCH":"2025-12-27T04:33:19.146816","MEAN_MOTION":13.17648723,"ECCENTRICITY":0.00018335,"INCLINATION":87.9109,"RA_OF_ASC_NODE":40.056,"ARG_OF_PERICENTER":110.7166,"MEAN_ANOMALY":249.4162,"EPHEMERIS_TYPE":0,"CLASSIFICATION_TYPE":"U","NORAD_CAT_ID":55140,"ELEMENT_SET_NO":999,"REV_AT_EPOCH":14493,"BSTAR":-2.545446e-5,"MEAN_MOTION_DOT":3.0e-8,"MEAN_MOTION_DDOT":0},{"OBJECT_NAME":"ONEWEB-0533","OBJECT_ID":"2023-004B","EPOCH":"2025-12-27T02:02:38.945472","MEAN_MOTION":13.12442495,"ECCENTRICITY":0.00019727,"INCLINATION":87.8929,"RA_OF_ASC_NODE":24.8471,"ARG_OF_PERICENTER":94.3691,"MEAN_ANOMALY":265.7663,"EPHEMERIS_TYPE":0,"CLASSIFICATION_TYPE":"U","NORAD_CAT_ID":55141,"ELEMENT_SET_NO":999,"REV_AT_EPOCH":14548,"BSTAR":-0.00024535633,"MEAN_MOTION_DOT":-7.6e-7,"MEAN_MOTION_DDOT":0},{"OBJECT_NAME":"ONEWEB-0541","OBJECT_ID":"2023-004C","EPOCH":"2025-12-27T05:01:30.384480","MEAN_MOTION":13.11418017,"ECCENTRICITY":0.00016576,"INCLINATION":87.8851,"RA_OF_ASC_NODE":55.2925,"ARG_OF_PERICENTER":104.5488,"MEAN_ANOMALY":255.5824,"EPHEMERIS_TYPE":0,"CLASSIFICATION_TYPE":"U","NORAD_CAT_ID":55142,"ELEMENT_SET_NO":999,"REV_AT_EPOCH":14340,"BSTAR":0.00056773485,"MEAN_MOTION_DOT":2.14e-6,"MEAN_MOTION_DDOT":0},{"OBJECT_NAME":"ONEWEB-0543","OBJECT_ID":"2023-004D","EPOCH":"2025-12-27T01:49:18.292224","MEAN_MOTION":13.18695343,"ECCENTRICITY":0.00019458,"INCLINATION":87.9152,"RA_OF_ASC_NODE":9.6709,"ARG_OF_PERICENTER":82.8655,"MEAN_ANOMALY":277.2698,"EPHEMERIS_TYPE":0,"CLASSIFICATION_TYPE":"U","NORAD_CAT_ID":55143,"ELEMENT_SET_NO":999,"REV_AT_EPOCH":14701,"BSTAR":0.0021962102,"MEAN_MOTION_DOT":8.79e-6,"MEAN_MOTION_DDOT":0},{"OBJECT_NAME":"ONEWEB-0544","OBJECT_ID":"2023-004E","EPOCH":"2025-12-27T07:07:37.585920","MEAN_MOTION":13.18685246,"ECCENTRICITY":0.00015927,"INCLINATION":87.9164,"RA_OF_ASC_NODE":9.6182,"ARG_OF_PERICENTER":84.1897,"MEAN_ANOMALY":275.9416,"EPHEMERIS_TYPE":0,"CLASSIFICATION_TYPE":"U","NORAD_CAT_ID":55144,"ELEMENT_SET_NO":999,"REV_AT_EPOCH":14704,"BSTAR":0.00013440156,"MEAN_MOTION_DOT":6.6e-7,"MEAN_MOTION_DDOT":0},{"OBJECT_NAME":"ONEWEB-0560","OBJECT_ID":"2023-004F","EPOCH":"2025-12-27T06:58:06.843072","MEAN_MOTION":13.18686792,"ECCENTRICITY":0.00016232,"INCLINATION":87.9167,"RA_OF_ASC_NODE":9.6072,"ARG_OF_PERICENTER":83.8561,"MEAN_ANOMALY":276.2756,"EPHEMERIS_TYPE":0,"CLASSIFICATION_TYPE":"U","NORAD_CAT_ID":55145,"ELEMENT_SET_NO":999,"REV_AT_EPOCH":14705,"BSTAR":-8.5535635e-5,"MEAN_MOTION_DOT":-2.1e-7,"MEAN_MOTION_DDOT":0},{"OBJECT_NAME":"ONEWEB-0565","OBJECT_ID":"2023-004G","EPOCH":"2025-12-26T23:31:33.578400","MEAN_MOTION":13.18686959,"ECCENTRICITY":0.000126,"INCLINATION":87.9155,"RA_OF_ASC_NODE":9.7136,"ARG_OF_PERICENTER":93.6043,"MEAN_ANOMALY":266.5233,"EPHEMERIS_TYPE":0,"CLASSIFICATION_TYPE":"U","NORAD_CAT_ID":55146,"ELEMENT_SET_NO":999,"REV_AT_EPOCH":14700,"BSTAR":0.00021729,"MEAN_MOTION_DOT":9.9e-7,"MEAN_MOTION_DDOT":0},{"OBJECT_NAME":"ONEWEB-0567","OBJECT_ID":"2023-004H","EPOCH":"2025-12-27T06:39:06.268032","MEAN_MOTION":13.18687475,"ECCENTRICITY":0.00013653,"INCLINATION":87.9162,"RA_OF_ASC_NODE":9.6222,"ARG_OF_PERICENTER":86.5017,"MEAN_ANOMALY":273.6271,"EPHEMERIS_TYPE":0,"CLASSIFICATION_TYPE":"U","NORAD_CAT_ID":55147,"ELEMENT_SET_NO":999,"REV_AT_EPOCH":14704,"BSTAR":7.296399e-6,"MEAN_MOTION_DOT":1.6e-7,"MEAN_MOTION_DDOT":0},{"OBJECT_NAME":"ONEWEB-0569","OBJECT_ID":"2023-004J","EPOCH":"2025-12-27T05:27:48.239424","MEAN_MOTION":13.13467981,"ECCENTRICITY":0.00013212,"INCLINATION":87.8989,"RA_OF_ASC_NODE":354.3836,"ARG_OF_PERICENTER":56.8789,"MEAN_ANOMALY":303.2467,"EPHEMERIS_TYPE":0,"CLASSIFICATION_TYPE":"U","NORAD_CAT_ID":55148,"ELEMENT_SET_NO":999,"REV_AT_EPOCH":14760,"BSTAR":0.00010862779,"MEAN_MOTION_DOT":5.2e-7,"MEAN_MOTION_DDOT":0},{"OBJECT_NAME":"ONEWEB-0570","OBJECT_ID":"2023-004K","EPOCH":"2025-12-27T06:24:51.393600","MEAN_MOTION":13.18685855,"ECCENTRICITY":0.00016233,"INCLINATION":87.9162,"RA_OF_ASC_NODE":9.6239,"ARG_OF_PERICENTER":107.5389,"MEAN_ANOMALY":252.592,"EPHEMERIS_TYPE":0,"CLASSIFICATION_TYPE":"U","NORAD_CAT_ID":55149,"ELEMENT_SET_NO":999,"REV_AT_EPOCH":14703,"BSTAR":6.095386e-6,"MEAN_MOTION_DOT":1.5e-7,"MEAN_MOTION_DDOT":0},{"OBJECT_NAME":"ONEWEB-0571","OBJECT_ID":"2023-004L","EPOCH":"2025-12-27T06:15:21.667680","MEAN_MOTION":13.18685339,"ECCENTRICITY":5.647e-5,"INCLINATION":87.916,"RA_OF_ASC_NODE":9.6243,"ARG_OF_PERICENTER":69.8696,"MEAN_ANOMALY":290.2497,"EPHEMERIS_TYPE":0,"CLASSIFICATION_TYPE":"U","NORAD_CAT_ID":55150,"ELEMENT_SET_NO":999,"REV_AT_EPOCH":14704,"BSTAR":2.7508117e-5,"MEAN_MOTION_DOT":2.4e-7,"MEAN_MOTION_DDOT":0},{"OBJECT_NAME":"ONEWEB-0572","OBJECT_ID":"2023-004M","EPOCH":"2025-12-27T01:38:21.662592","MEAN_MOTION":13.17648645,"ECCENTRICITY":0.00016122,"INCLINATION":87.9096,"RA_OF_ASC_NODE":40.0887,"ARG_OF_PERICENTER":99.1302,"MEAN_ANOMALY":261.0012,"EPHEMERIS_TYPE":0,"CLASSIFICATION_TYPE":"U","NORAD_CAT_ID":55151,"ELEMENT_SET_NO":999,"REV_AT_EPOCH":14481,"BSTAR":-7.7716545e-5,"MEAN_MOTION_DOT":-1.7e-7,"MEAN_MOTION_DDOT":0},{"OBJECT_NAME":"ONEWEB-0573","OBJECT_ID":"2023-004N","EPOCH":"2025-12-27T06:05:50.884224","MEAN_MOTION":13.18685487,"ECCENTRICITY":0.00010978,"INCLINATION":87.9152,"RA_OF_ASC_NODE":9.6297,"ARG_OF_PERICENTER":112.0006,"MEAN_ANOMALY":248.1243,"EPHEMERIS_TYPE":0,"CLASSIFICATION_TYPE":"U","NORAD_CAT_ID":55152,"ELEMENT_SET_NO":999,"REV_AT_EPOCH":14703,"BSTAR":6.6319654e-5,"MEAN_MOTION_DOT":3.9e-7,"MEAN_MOTION_DDOT":0},{"OBJECT_NAME":"ONEWEB-0588","OBJECT_ID":"2023-004P","EPOCH":"2025-12-27T07:45:36.904320","MEAN_MOTION":13.18687072,"ECCENTRICITY":0.0001523,"INCLINATION":87.9163,"RA_OF_ASC_NODE":9.6126,"ARG_OF_PERICENTER":104.8162,"MEAN_ANOMALY":255.3139,"EPHEMERIS_TYPE":0,"CLASSIFICATION_TYPE":"U","NORAD_CAT_ID":55153,"ELEMENT_SET_NO":999,"REV_AT_EPOCH":14704,"BSTAR":-4.7727102e-5,"MEAN_MOTION_DOT":-6.0e-8,"MEAN_MOTION_DDOT":0},{"OBJECT_NAME":"ONEWEB-0598","OBJECT_ID":"2023-004Q","EPOCH":"2025-12-27T04:29:44.249280","MEAN_MOTION":13.11415366,"ECCENTRICITY":0.00012397,"INCLINATION":87.8843,"RA_OF_ASC_NODE":55.3241,"ARG_OF_PERICENTER":88.0699,"MEAN_ANOMALY":272.0571,"EPHEMERIS_TYPE":0,"CLASSIFICATION_TYPE":"U","NORAD_CAT_ID":55154,"ELEMENT_SET_NO":999,"REV_AT_EPOCH":14335,"BSTAR":-0.0014702671,"MEAN_MOTION_DOT":-5.08e-6,"MEAN_MOTION_DDOT":0}]
