ONEWEB-0712             
1 54680U 22166AQ  25361.23088410 -.00000062  00000+0 -19559-3 0  9994
2 54680  87.9051 263.0104 0001924  62.5701 297.5626 13.16592768149434
ONEWEB-0714             
1 54681U 22166AR  25361.26749143  .00000037  00000+0  57272-4 0  9990
2 54681  87.9228 278.2751 0001953  75.3126 284.8225 13.21825995148825
ONEWEB-0532             
1 55140U 23004A   25361.18980494  .00000003  00000+0 -25454-4 0  9991
2 55140  87.9109  40.0560 0001833 110.7166 249.4162 13.17648723144934
ONEWEB-0533             
1 55141U 23004B   25361.08517298 -.00000076  00000+0 -24536-3 0  9999
2 55141  87.8929  24.8471 0001972  94.3691 265.7663 13.12442495145480
ONEWEB-0541             
1 55142U 23004C   25361.20937945  .00000214  00000+0  56773-3 0  9999
2 55142  87.8851  55.2925 0001657 104.5488 255.5824 13.11418017143403
ONEWEB-0543             
1 55143U 23004D   25361.07590616  .00000879  00000+0  21962-2 0  9993
2 55143  87.9152   9.6709 0001945  82.8655 277.2698 13.18695343147013
ONEWEB-0544             
1 55144U 23004E   25361.29696280  .00000066  00000+0  13440-3 0  9993
2 55144  87.9164   9.6182 0001592  84.1897 275.9416 13.18685246147040
ONEWEB-0560             
1 55145U 23004F   25361.29035698 -.00000021  00000+0 -85536-4 0  9993
2 55145  87.9167   9.6072 0001623  83.8561 276.2756 13.18686792147050
ONEWEB-0565             
1 55146U 23004G   25360.98024975  .00000099  00000+0  21729-3 0  9991
2 55146  87.9155   9.7136 0001260  93.6043 266.5233 13.18686959147003
ONEWEB-0567             
1 55147U 23004H   25361.27715588  .00000016  00000+0  72964-5 0  9990
2 55147  87.9162   9.6222 0001365  86.5017 273.6271 13.18687475147044
ONEWEB-0569             
1 55148U 23004J   25361.22764166  .00000052  00000+0  10863-3 0  9990
2 55148  87.8989 354.3836 0001321  56.8789 303.2467 13.13467981147602
ONEWEB-0570             
1 55149U 23004K   25361.26726150  .00000015  00000+0  60954-5 0  9993
2 55149  87.9162   9.6239 0001623 107.5389 252.5920 13.18685855147033
ONEWEB-0571             
1 55150U 23004L   25361.26066745  .00000024  00000+0  27508-4 0  9999
2 55150  87.9160   9.6243 0000564  69.8696 290.2497 13.18685339147048
ONEWEB-0572             
1 55151U 23004M   25361.06830628 -.00000017  00000+0 -77717-4 0  9998
2 55151  87.9096  40.0887 0001612  99.1302 261.0012 13.17648645144814
ONEWEB-0573             
1 55152U 23004N   25361.25406116  .00000039  00000+0  66320-4 0  9991
2 55152  87.9152   9.6297 0001097 112.0006 248.1243 13.18685487147032
ONEWEB-0588             
1 55153U 23004P   25361.32334380 -.00000006  00000+0 -47727-4 0  9999
2 55153  87.9163   9.6126 0001523 104.8162 255.3139 13.18687072147049
ONEWEB-0598             
1 55154U 23004Q   25361.18731770 -.00000508  00000+0 -14703-2 0  9991
2 55154  87.8843  55.3241 0001239  88.0699 272.0571 13.11415366143356
